GPS BIIA-23 (PRN 18)    
1 22877U 93068A   19216.70058935 -.00000053  00000-0  00000+0 0  9996
2 22877  54.7199  66.5741 0154050  81.0191  97.7997  2.00562475188845
GPS BIIR-2  (PRN 13)    
1 24876U 97035A   19217.84299638  .00000064  00000-0  00000+0 0  9999
2 24876  55.4613 196.5246 0033881  69.2450 291.0984  2.00564137161464
GPS BIIR-3  (PRN 11)    
1 25933U 99055A   19218.23055227 -.00000075  00000-0  00000+0 0  9999
2 25933  52.1542  43.6643 0165272 110.3640  95.1212  2.00557720145285
GPS BIIR-4  (PRN 20)    
1 26360U 00025A   19216.59562319 -.00000015  00000-0  00000+0 0  9999
2 26360  53.3577 122.4204 0044972 139.7630  12.8023  2.00569149140950
GPS BIIR-5  (PRN 28)    
1 26407U 00040A   19217.41500104 -.00000064  00000-0  00000+0 0  9998
2 26407  56.2240 314.6589 0192666 276.0933  80.4180  2.00560270139642
GPS BIIR-6  (PRN 14)    
1 26605U 00071A   19217.79593451  .00000062  00000-0  00000+0 0  9997
2 26605  55.0360 193.9545 0110127 249.7682 293.5936  2.00556681137243
GPS BIIR-8  (PRN 16)    
1 27663U 03005A   19218.34766666 -.00000072  00000-0  00000+0 0  9996
2 27663  56.2827 314.3974 0106169  32.4186  41.5231  2.00570647121027
GPS BIIR-9  (PRN 21)    
1 27704U 03010A   19217.29702348 -.00000058  00000-0  00000+0 0  9992
2 27704  54.3968  66.0039 0246992 278.3973  77.7112  2.00561834119805
GPS BIIR-10 (PRN 22)    
1 28129U 03058A   19218.03956569 -.00000026  00000-0  00000+0 0  9990
2 28129  53.1702 125.1355 0072672 284.8888  74.3407  2.00555154114518
GPS BIIR-11 (PRN 19)    
1 28190U 04009A   19218.27903480 -.00000076  00000-0  00000+0 0  9990
2 28190  56.2763  15.1726 0093269  84.1055  92.4678  2.00567516112692
GPS BIIR-12 (PRN 23)    
1 28361U 04023A   19217.41021380  .00000054  00000-0  00000+0 0  9996
2 28361  54.0529 188.2870 0134405 232.4813 311.6768  2.00550389110760
GPS BIIR-13 (PRN 02)    
1 28474U 04045A   19217.43954355 -.00000059  00000-0  00000+0 0  9990
2 28474  54.7524  65.7677 0191539 261.2655 301.2206  2.00553524108129
GPS BIIRM-1 (PRN 17)    
1 28874U 05038A   19218.51916576 -.00000077  00000-0  00000+0 0  9990
2 28874  56.3960  12.5216 0131429 262.0117 104.1876  2.00551861101553
GPS BIIRM-2 (PRN 31)    
1 29486U 06042A   19215.12048049  .00000040  00000-0  00000+0 0  9990
2 29486  54.9793 251.1601 0092497 359.2868 359.9305  2.00564759 94191
GPS BIIRM-3 (PRN 12)    
1 29601U 06052A   19217.06274965 -.00000060  00000-0  00000+0 0  9996
2 29601  56.2649 313.3647 0073311  62.5622 298.2253  2.00572347 93156
GPS BIIRM-4 (PRN 15)    
1 32260U 07047A   19215.88120518  .00000042  00000-0  00000+0 0  9997
2 32260  53.1760 183.9945 0113932  44.6667 316.2101  2.00555989 86504
GPS BIIRM-5 (PRN 29)    
1 32384U 07062A   19217.19301347 -.00000074  00000-0  00000+0 0  9994
2 32384  56.4818  13.2176 0009989 112.9403 248.7901  2.00559144 85272
GPS BIIRM-6 (PRN 07)    
1 32711U 08012A   19218.28206067  .00000031  00000-0  00000+0 0  9990
2 32711  54.7193 250.2115 0132327 220.8793 138.1747  2.00555826 83476
GPS BIIRM-8 (PRN 05)    
1 35752U 09043A   19217.98654767 -.00000021  00000-0  00000+0 0  9993
2 35752  54.4476 127.8782 0056666  41.3556 130.9873  2.00555432 73054
GPS BIIF-1  (PRN 25)    
1 36585U 10022A   19217.58804189 -.00000062  00000-0  00000+0 0  9993
2 36585  55.5425 309.6087 0082081  50.8217 296.7235  2.00563091 67294
GPS BIIF-2  (PRN 01)    
1 37753U 11036A   19217.28314310 -.00000053  00000-0  00000+0 0  9996
2 37753  55.9498  69.7948 0089173  41.6336 174.3622  2.00566659 58963
GPS BIIF-3  (PRN 24)    
1 38833U 12053A   19216.97335219  .00000032  00000-0  00000+0 0  9998
2 38833  53.7564 246.4183 0083340  33.1603 327.4128  2.00559247 50027
GPS BIIF-4  (PRN 27)    
1 39166U 13023A   19218.32637870 -.00000079  00000-0  00000+0 0  9997
2 39166  56.0745   9.2864 0070568  28.0411 332.3438  2.00566836 45590
GPS BIIF-5  (PRN 30)    
1 39533U 14008A   19217.82516764  .00000025  00000-0  00000+0 0  9991
2 39533  53.8843 251.7842 0042446 195.8612 164.0618  2.00551573 39946
GPS BIIF-6  (PRN 06)    
1 39741U 14026A   19216.61018638 -.00000048  00000-0  00000+0 0  9991
2 39741  55.9284  69.3471 0015984 293.6915  66.2123  2.00568825 38200
GPS BIIF-7  (PRN 09)    
1 40105U 14045A   19216.20435200  .00000049  00000-0  00000+0 0  9991
2 40105  54.5795 188.6666 0010271  99.5521 260.5342  2.00568800 36640
GPS BIIF-8  (PRN 03)    
1 40294U 14068A   19218.06943147 -.00000019  00000-0  00000+0 0  9993
2 40294  55.1995 129.4688 0022750  34.2867 325.8872  2.00555985 34909
GPS BIIF-9  (PRN 26)    
1 40534U 15013A   19217.20909476 -.00000058  00000-0  00000+0 0  9996
2 40534  54.4685 307.9136 0037409   4.9844 355.1041  2.00566504 31956
GPS BIIF-10  (PRN 08)   
1 40730U 15033A   19217.37452621 -.00000078  00000-0  00000+0 0  9991
2 40730  55.5984   8.6420 0044553 345.4877  14.3906  2.00551555 29711
GPS BIIF-11  (PRN 10)   
1 41019U 15062A   19217.91697377 -.00000017  00000-0  00000+0 0  9996
2 41019  55.1998 129.2917 0047996 206.8499 152.9291  2.00564542 27543
GPS BIIF-12  (PRN 32)   
1 41328U 16007A   19218.00945849  .00000059  00000-0  00000+0 0  9995
2 41328  54.8222 188.9971 0033607 220.8717 138.8523  2.00570310 25603
